{
  "norad_id": 60063,
  "name": "STARLINK-11165 [DTC]",
  "history": [
    {
      "epoch": "2026-04-13T04:56:14.859456Z",
      "apogee_km": 360.3809123980327,
      "perigee_km": 359.0182523276162,
      "latitude_deg": -5.9021426278120004e-05,
      "longitude_deg": 105.50109816228664,
      "height_km": 360.60921211697024,
      "semi_major_axis_km": 6737.836582362824,
      "eccentricity": 0.00010112,
      "inclination_deg": 53.1589,
      "raan_deg": 20.9629,
      "arg_perigee_deg": 89.6603,
      "mean_anomaly_deg": 270.453,
      "mean_motion_rev_day": 15.69719494
    },
    {
      "epoch": "2026-04-14T11:29:56.272992Z",
      "apogee_km": 360.3474380977723,
      "perigee_km": 359.0580850809938,
      "latitude_deg": 1.5085630859020141e-06,
      "longitude_deg": -0.45292831218070134,
      "height_km": 360.5100178505044,
      "semi_major_axis_km": 6737.839761589383,
      "eccentricity": 9.568e-05,
      "inclination_deg": 53.1603,
      "raan_deg": 14.6865,
      "arg_perigee_deg": 80.4778,
      "mean_anomaly_deg": 279.6348,
      "mean_motion_rev_day": 15.69718383
    },
    {
      "epoch": "2026-04-15T10:25:11.948448Z",
      "apogee_km": 360.7689710025634,
      "perigee_km": 358.6597540120447,
      "latitude_deg": -7.187365967222226e-06,
      "longitude_deg": 10.081619582301395,
      "height_km": 360.37853202814125,
      "semi_major_axis_km": 6737.851362507304,
      "eccentricity": 0.00015652,
      "inclination_deg": 53.1592,
      "raan_deg": 9.9777,
      "arg_perigee_deg": 76.3526,
      "mean_anomaly_deg": 283.7666,
      "mean_motion_rev_day": 15.69714329
    },
    {
      "epoch": "2026-04-16T12:23:49.748064Z",
      "apogee_km": 361.0544101497617,
      "perigee_km": 358.4522369068163,
      "latitude_deg": 5.1519964992881365e-05,
      "longitude_deg": -25.979677291273347,
      "height_km": 360.8313008107494,
      "semi_major_axis_km": 6737.890323528289,
      "eccentricity": 0.0001931,
      "inclination_deg": 53.1579,
      "raan_deg": 4.6407,
      "arg_perigee_deg": 97.317,
      "mean_anomaly_deg": 262.8068,
      "mean_motion_rev_day": 15.69700714
    },
    {
      "epoch": "2026-04-17T22:00:51.714144Z",
      "apogee_km": 360.218659989323,
      "perigee_km": 359.19383403145275,
      "latitude_deg": 2.723373568520713e-05,
      "longitude_deg": -178.52569528155885,
      "height_km": 360.4291930742374,
      "semi_major_axis_km": 6737.843247010387,
      "eccentricity": 7.605e-05,
      "inclination_deg": 53.1578,
      "raan_deg": 357.7335,
      "arg_perigee_deg": 68.1156,
      "mean_anomaly_deg": 291.9943,
      "mean_motion_rev_day": 15.69717165
    },
    {
      "epoch": "2026-04-17T23:32:32.743392Z",
      "apogee_km": 360.33600086004026,
      "perigee_km": 359.0479974685595,
      "latitude_deg": 5.73454532969576e-06,
      "longitude_deg": 158.17697822893317,
      "height_km": 360.34500716193355,
      "semi_major_axis_km": 6737.8289991643,
      "eccentricity": 9.558e-05,
      "inclination_deg": 53.158,
      "raan_deg": 357.4199,
      "arg_perigee_deg": 66.1166,
      "mean_anomaly_deg": 293.9952,
      "mean_motion_rev_day": 15.69722144
    },
    {
      "epoch": "2026-04-19T19:51:23.235264Z",
      "apogee_km": 360.24358941949504,
      "perigee_km": 359.2356030806959,
      "latitude_deg": 5.8228713831852934e-05,
      "longitude_deg": -157.45447885097352,
      "height_km": 360.696925083904,
      "semi_major_axis_km": 6737.876596250096,
      "eccentricity": 7.48e-05,
      "inclination_deg": 53.1598,
      "raan_deg": 348.3187,
      "arg_perigee_deg": 94.9211,
      "mean_anomaly_deg": 265.1893,
      "mean_motion_rev_day": 15.69705511
    },
    {
      "epoch": "2026-04-20T01:58:07.562208Z",
      "apogee_km": 360.2335768484072,
      "perigee_km": 359.26291709972884,
      "latitude_deg": -3.1998844767761685e-05,
      "longitude_deg": 109.35513415524431,
      "height_km": 360.6578004586807,
      "semi_major_axis_km": 6737.885246974068,
      "eccentricity": 7.203e-05,
      "inclination_deg": 53.1595,
      "raan_deg": 347.0641,
      "arg_perigee_deg": 89.4625,
      "mean_anomaly_deg": 270.6475,
      "mean_motion_rev_day": 15.69702488
    },
    {
      "epoch": "2026-04-21T20:45:15.779808Z",
      "apogee_km": 360.09926454301603,
      "perigee_km": 359.44029725984456,
      "latitude_deg": 1.894172559909175e-05,
      "longitude_deg": 177.02468499984417,
      "height_km": 360.750238217287,
      "semi_major_axis_km": 6737.9067809014305,
      "eccentricity": 4.89e-05,
      "inclination_deg": 53.159,
      "raan_deg": 338.275,
      "arg_perigee_deg": 101.5746,
      "mean_anomaly_deg": 258.5327,
      "mean_motion_rev_day": 15.69694963
    },
    {
      "epoch": "2026-04-22T19:40:31.397376Z",
      "apogee_km": 360.0756372638789,
      "perigee_km": 359.3897221304869,
      "latitude_deg": -2.0632456568814177e-05,
      "longitude_deg": -172.4405522512747,
      "height_km": 360.5867492797607,
      "semi_major_axis_km": 6737.869679697183,
      "eccentricity": 5.09e-05,
      "inclination_deg": 53.1585,
      "raan_deg": 333.5662,
      "arg_perigee_deg": 79.8888,
      "mean_anomaly_deg": 280.2187,
      "mean_motion_rev_day": 15.69707928
    },
    {
      "epoch": "2026-04-22T21:12:12.945024Z",
      "apogee_km": 360.2986938437125,
      "perigee_km": 359.16807919285566,
      "latitude_deg": 4.867284847075779e-08,
      "longitude_deg": 164.26208654256996,
      "height_km": 360.6591328810214,
      "semi_major_axis_km": 6737.870386518284,
      "eccentricity": 8.39e-05,
      "inclination_deg": 53.1603,
      "raan_deg": 333.2547,
      "arg_perigee_deg": 91.1869,
      "mean_anomaly_deg": 268.9245,
      "mean_motion_rev_day": 15.69707681
    },
    {
      "epoch": "2026-04-24T20:34:24.177792Z",
      "apogee_km": 360.41037487712856,
      "perigee_km": 359.05471552463496,
      "latitude_deg": 1.019590582760125e-05,
      "longitude_deg": 162.03938004883744,
      "height_km": 360.4867121381054,
      "semi_major_axis_km": 6737.8695452008815,
      "eccentricity": 0.0001006,
      "inclination_deg": 53.1611,
      "raan_deg": 323.5242,
      "arg_perigee_deg": 76.3661,
      "mean_anomaly_deg": 283.7469,
      "mean_motion_rev_day": 15.69707975
    },
    {
      "epoch": "2026-04-25T17:57:57.960864Z",
      "apogee_km": 360.5482101500629,
      "perigee_km": 359.0604727018763,
      "latitude_deg": 2.2615754312771146e-05,
      "longitude_deg": -164.12724136089696,
      "height_km": 361.36831248683285,
      "semi_major_axis_km": 6737.941341425969,
      "eccentricity": 0.0001104,
      "inclination_deg": 53.1611,
      "raan_deg": 319.1269,
      "arg_perigee_deg": 150.8229,
      "mean_anomaly_deg": 209.2851,
      "mean_motion_rev_day": 15.69682886
    },
    {
      "epoch": "2026-04-26T19:56:35.938464Z",
      "apogee_km": 360.2941572687005,
      "perigee_km": 359.1702806829744,
      "latitude_deg": -2.0287067063589007e-05,
      "longitude_deg": 159.81614077194794,
      "height_km": 360.40678195998464,
      "semi_major_axis_km": 6737.869218975837,
      "eccentricity": 8.34e-05,
      "inclination_deg": 53.1588,
      "raan_deg": 313.7954,
      "arg_perigee_deg": 64.7813,
      "mean_anomaly_deg": 295.3291,
      "mean_motion_rev_day": 15.69708089
    },
    {
      "epoch": "2026-04-27T18:51:49.544640Z",
      "apogee_km": 360.43071262300055,
      "perigee_km": 358.4256132305136,
      "latitude_deg": 1.1689692205146596e-05,
      "longitude_deg": 170.3559636591394,
      "height_km": 359.8149284435242,
      "semi_major_axis_km": 6737.565162926757,
      "eccentricity": 0.0001488,
      "inclination_deg": 53.1585,
      "raan_deg": 309.0832,
      "arg_perigee_deg": 58.3174,
      "mean_anomaly_deg": 301.7989,
      "mean_motion_rev_day": 15.69814348
    },
    {
      "epoch": "2026-04-28T19:18:48.341952Z",
      "apogee_km": 360.32818714744917,
      "perigee_km": 359.1679233409359,
      "latitude_deg": 7.594701286353167e-06,
      "longitude_deg": 157.5886604546405,
      "height_km": 360.4394104706786,
      "semi_major_axis_km": 6737.885055244192,
      "eccentricity": 8.61e-05,
      "inclination_deg": 53.1587,
      "raan_deg": 304.065,
      "arg_perigee_deg": 67.4403,
      "mean_anomaly_deg": 292.6706,
      "mean_motion_rev_day": 15.69702555
    },
    {
      "epoch": "2026-04-29T16:42:22.694400Z",
      "apogee_km": 360.2858949489091,
      "perigee_km": 359.1930113882054,
      "latitude_deg": 2.634497951022501e-05,
      "longitude_deg": -168.57633464613122,
      "height_km": 360.6263503280264,
      "semi_major_axis_km": 6737.8764531685565,
      "eccentricity": 8.11e-05,
      "inclination_deg": 53.1593,
      "raan_deg": 299.6717,
      "arg_perigee_deg": 87.1611,
      "mean_anomaly_deg": 272.95,
      "mean_motion_rev_day": 15.69705561
    },
    {
      "epoch": "2026-04-29T21:17:25.395936Z",
      "apogee_km": 360.27150965513647,
      "perigee_km": 359.1772809645381,
      "latitude_deg": -4.229871910095191e-05,
      "longitude_deg": 121.53229623264042,
      "height_km": 360.5894468698739,
      "semi_major_axis_km": 6737.8613953098375,
      "eccentricity": 8.12e-05,
      "inclination_deg": 53.1593,
      "raan_deg": 298.7299,
      "arg_perigee_deg": 84.8697,
      "mean_anomaly_deg": 275.2413,
      "mean_motion_rev_day": 15.69710823
    },
    {
      "epoch": "2026-05-02T04:18:03.224736Z",
      "apogee_km": 360.3948985395982,
      "perigee_km": 359.1254787092612,
      "latitude_deg": -3.508503229315666e-05,
      "longitude_deg": 2.811878138356901,
      "height_km": 360.9586100123849,
      "semi_major_axis_km": 6737.89718862443,
      "eccentricity": 9.42e-05,
      "inclination_deg": 53.1597,
      "raan_deg": 287.4263,
      "arg_perigee_deg": 116.6264,
      "mean_anomaly_deg": 243.485,
      "mean_motion_rev_day": 15.69698315
    }
  ]
}